IRIDIUM 63              
1 25286U 98021B   25341.33399646  .00000673  00000+0  22169-3 0  9999
2 25286  86.3986   9.4831 0002411  90.8126 269.3348 14.36729482448708
IRIDIUM 69              
1 25319U 98026A   25341.09108499  .00000963  00000+0  29233-3 0  9999
2 25319  86.3983  22.3268 0003533 135.2330 224.9155 14.41208879447965
IRIDIUM 71              
1 25320U 98026B   25341.07825809  .00000512  00000+0  15238-3 0  9990
2 25320  86.3981  17.0053 0001316 161.1711 198.9538 14.41313038448494
IRIDIUM 73              
1 25344U 98032C   25340.98994667  .00001225  00000+0  29862-3 0  9991
2 25344  86.4402 333.4333 0002837  98.3088 261.8439 14.51977784455631
IRIDIUM 82              
1 25467U 98051A   25341.08243166  .00057752  00000+0  10920-2 0  9991
2 25467  86.3608  23.9557 0062265 357.4469   2.6460 15.46020548450526
